start=new Date('2022-11-21T00:00:00.000Z').valueOf();
sats=[{"OBJECT_TYPE":"PAYLOAD","MEAN_ELEMENT_THEORY":"SGP4","PERIOD":"95.438","SEMIMAJOR_AXIS":"6917.911","OBJECT_NAME":"STARLINK-4661","MEAN_MOTION_DDOT":"0.0000000000000","EPOCH":"2022-11-20T22:00:00.999936","MEAN_MOTION_DOT":"-0.00003701","CENTER_NAME":"EARTH","REV_AT_EPOCH":"130","ECCENTRICITY":"0.00018010","TIME_SYSTEM":"UTC","FILE":"3665715","COUNTRY_CODE":"US","EPHEMERIS_TYPE":"0","ARG_OF_PERICENTER":"49.3437","OBJECT_ID":"2022-107AJ","RA_OF_ASC_NODE":"262.6148","INCLINATION":"53.2173","REF_FRAME":"TEME","APOAPSIS":"541.022","NORAD_CAT_ID":"53732","LAUNCH_DATE":"2022-09-05","ELEMENT_SET_NO":"999","TLE_LINE2":"2 53732  53.2173 262.6148 0001801  49.3437 280.0996 15.08830051  1301","BSTAR":"-0.00021460000000","DECAY_DATE":null,"MEAN_MOTION":"15.08830051","SITE":"AFETR","MEAN_ANOMALY":"280.0996","RCS_SIZE":"LARGE","PERIAPSIS":"538.530","GP_ID":"218363112","CLASSIFICATION_TYPE":"U","TLE_LINE1":"1 53732U 22107AJ  22324.91667824 -.00003701  00000-0 -21460-3 0  9997"},{"PERIAPSIS":"538.552","TLE_LINE1":"1 53733U 22107AK  22324.91667824 -.00003965  00000-0 -23112-3 0  9996","CLASSIFICATION_TYPE":"U","GP_ID":"218363606","MEAN_MOTION":"15.08849379","SITE":"AFETR","DECAY_DATE":null,"MEAN_ANOMALY":"202.9691","RCS_SIZE":"LARGE","LAUNCH_DATE":"2022-09-05","NORAD_CAT_ID":"53733","ELEMENT_SET_NO":"999","TLE_LINE2":"2 53733  53.2151 262.7770 0001684  46.3802 202.9691 15.08849379  1300","BSTAR":"-0.00023112000000","INCLINATION":"53.2151","APOAPSIS":"540.882","REF_FRAME":"TEME","OBJECT_ID":"2022-107AK","EPHEMERIS_TYPE":"0","ARG_OF_PERICENTER":"46.3802","RA_OF_ASC_NODE":"262.7770","TIME_SYSTEM":"UTC","ECCENTRICITY":"0.00016840","REV_AT_EPOCH":"130","COUNTRY_CODE":"US","FILE":"3665715","SEMIMAJOR_AXIS":"6917.852","OBJECT_NAME":"STARLINK-4574","EPOCH":"2022-11-20T22:00:00.999936","MEAN_MOTION_DDOT":"0.0000000000000","MEAN_MOTION_DOT":"-0.00003965","PERIOD":"95.437","CENTER_NAME":"EARTH","OBJECT_TYPE":"PAYLOAD","MEAN_ELEMENT_THEORY":"SGP4"},{"TIME_SYSTEM":"UTC","ECCENTRICITY":"0.00016280","REV_AT_EPOCH":"130","COUNTRY_CODE":"US","FILE":"3665715","OBJECT_ID":"2022-107AL","ARG_OF_PERICENTER":"43.4509","EPHEMERIS_TYPE":"0","RA_OF_ASC_NODE":"262.6654","OBJECT_TYPE":"PAYLOAD","MEAN_ELEMENT_THEORY":"SGP4","OBJECT_NAME":"STARLINK-4616","SEMIMAJOR_AXIS":"6917.821","MEAN_MOTION_DDOT":"0.0000000000000","MEAN_MOTION_DOT":"-0.00026618","EPOCH":"2022-11-20T22:00:00.999936","PERIOD":"95.436","CENTER_NAME":"EARTH","MEAN_MOTION":"15.08859477","SITE":"AFETR","DECAY_DATE":null,"MEAN_ANOMALY":"260.7501","RCS_SIZE":"LARGE","PERIAPSIS":"538.560","TLE_LINE1":"1 53734U 22107AL  22324.91667824 -.00026618  00000-0 -16596-2 0  9994","CLASSIFICATION_TYPE":"U","GP_ID":"218363772","INCLINATION":"53.2171","APOAPSIS":"540.812","REF_FRAME":"TEME","LAUNCH_DATE":"2022-09-05","NORAD_CAT_ID":"53734","ELEMENT_SET_NO":"999","TLE_LINE2":"2 53734  53.2171 262.6654 0001628  43.4509 260.7501 15.08859477  1305","BSTAR":"-0.00165960000000"},{"DECAY_DATE":null,"MEAN_MOTION":"15.08838917","SITE":"AFETR","MEAN_ANOMALY":"357.3356","RCS_SIZE":"LARGE","PERIAPSIS":"538.836","GP_ID":"218364266","CLASSIFICATION_TYPE":"U","TLE_LINE1":"1 53735U 22107AM  22324.91667824  .00004265  00000-0  28591-3 0  9996","INCLINATION":"53.2163","REF_FRAME":"TEME","APOAPSIS":"540.662","NORAD_CAT_ID":"53735","LAUNCH_DATE":"2022-09-05","ELEMENT_SET_NO":"999","TLE_LINE2":"2 53735  53.2163 272.3555 0001320  97.2850 357.3356 15.08838917  1307","BSTAR":"0.00028591000000","ECCENTRICITY":"0.00013200","REV_AT_EPOCH":"130","TIME_SYSTEM":"UTC","FILE":"3665715","COUNTRY_CODE":"US","EPHEMERIS_TYPE":"0","ARG_OF_PERICENTER":"97.2850","OBJECT_ID":"2022-107AM","RA_OF_ASC_NODE":"272.3555","OBJECT_TYPE":"PAYLOAD","MEAN_ELEMENT_THEORY":"SGP4","PERIOD":"95.438","SEMIMAJOR_AXIS":"6917.884","OBJECT_NAME":"STARLINK-4618","MEAN_MOTION_DOT":"0.00004265","MEAN_MOTION_DDOT":"0.0000000000000","EPOCH":"2022-11-20T22:00:00.999936","CENTER_NAME":"EARTH"},{"NORAD_CAT_ID":"53736","LAUNCH_DATE":"2022-09-05","TLE_LINE2":"2 53736  53.2164 262.7336 0001720  51.7252 217.6488 15.08872852  1304","ELEMENT_SET_NO":"999","BSTAR":"-0.00356080000000","INCLINATION":"53.2164","REF_FRAME":"TEME","APOAPSIS":"540.835","PERIAPSIS":"538.455","GP_ID":"218363442","CLASSIFICATION_TYPE":"U","TLE_LINE1":"1 53736U 22107AN  22324.91667824 -.00056565  00000-0 -35608-2 0  9995","DECAY_DATE":null,"MEAN_MOTION":"15.08872852","SITE":"AFETR","MEAN_ANOMALY":"217.6488","RCS_SIZE":"LARGE","PERIOD":"95.435","SEMIMAJOR_AXIS":"6917.780","OBJECT_NAME":"STARLINK-4652","EPOCH":"2022-11-20T22:00:00.999936","MEAN_MOTION_DDOT":"0.0000000000000","MEAN_MOTION_DOT":"-0.00056565","CENTER_NAME":"EARTH","OBJECT_TYPE":"PAYLOAD","MEAN_ELEMENT_THEORY":"SGP4","EPHEMERIS_TYPE":"0","ARG_OF_PERICENTER":"51.7252","OBJECT_ID":"2022-107AN","RA_OF_ASC_NODE":"262.7336","REV_AT_EPOCH":"130","ECCENTRICITY":"0.00017200","TIME_SYSTEM":"UTC","FILE":"3665715","COUNTRY_CODE":"US"},{"MEAN_ELEMENT_THEORY":"SGP4","OBJECT_TYPE":"PAYLOAD","CENTER_NAME":"EARTH","MEAN_MOTION_DOT":"-0.00039724","MEAN_MOTION_DDOT":"0.0000000000000","EPOCH":"2022-11-20T22:00:00.999936","SEMIMAJOR_AXIS":"6917.855","OBJECT_NAME":"STARLINK-4646","PERIOD":"95.437","COUNTRY_CODE":"US","FILE":"3665715","TIME_SYSTEM":"UTC","ECCENTRICITY":"0.00014610","REV_AT_EPOCH":"130","RA_OF_ASC_NODE":"272.3948","OBJECT_ID":"2022-107AP","EPHEMERIS_TYPE":"0","ARG_OF_PERICENTER":"88.8505","APOAPSIS":"540.731","REF_FRAME":"TEME","INCLINATION":"53.2161","BSTAR":"-0.00249110000000","ELEMENT_SET_NO":"999","TLE_LINE2":"2 53737  53.2161 272.3948 0001461  88.8505 345.7619 15.08848332  1307","LAUNCH_DATE":"2022-09-05","NORAD_CAT_ID":"53737","RCS_SIZE":"LARGE","MEAN_ANOMALY":"345.7619","SITE":"AFETR","MEAN_MOTION":"15.08848332","DECAY_DATE":null,"TLE_LINE1":"1 53737U 22107AP  22324.91667824 -.00039724  00000-0 -24911-2 0  9999","CLASSIFICATION_TYPE":"U","GP_ID":"218363278","PERIAPSIS":"538.709"},{"GP_ID":"218364102","TLE_LINE1":"1 53738U 22107AQ  22324.91667824 -.00043127  00000-0 -27066-2 0  9996","CLASSIFICATION_TYPE":"U","PERIAPSIS":"538.599","MEAN_ANOMALY":"46.8471","RCS_SIZE":"LARGE","DECAY_DATE":null,"MEAN_MOTION":"15.08857606","SITE":"AFETR","ELEMENT_SET_NO":"999","TLE_LINE2":"2 53738  53.2152 272.3154 0001580  67.7950  46.8471 15.08857606  1308","BSTAR":"-0.00270660000000","NORAD_CAT_ID":"53738","LAUNCH_DATE":"2022-09-05","REF_FRAME":"TEME","APOAPSIS":"540.785","INCLINATION":"53.2152","RA_OF_ASC_NODE":"272.3154","EPHEMERIS_TYPE":"0","ARG_OF_PERICENTER":"67.7950","OBJECT_ID":"2022-107AQ","FILE":"3665715","COUNTRY_CODE":"US","REV_AT_EPOCH":"130","ECCENTRICITY":"0.00015800","TIME_SYSTEM":"UTC","CENTER_NAME":"EARTH","PERIOD":"95.436","SEMIMAJOR_AXIS":"6917.827","OBJECT_NAME":"STARLINK-4662","EPOCH":"2022-11-20T22:00:00.999936","MEAN_MOTION_DDOT":"0.0000000000000","MEAN_MOTION_DOT":"-0.00043127","MEAN_ELEMENT_THEORY":"SGP4","OBJECT_TYPE":"PAYLOAD"},{"INCLINATION":"53.2160","APOAPSIS":"540.764","REF_FRAME":"TEME","LAUNCH_DATE":"2022-09-05","NORAD_CAT_ID":"53740","ELEMENT_SET_NO":"999","TLE_LINE2":"2 53740  53.2160 272.4329 0001447  90.0668 324.5198 15.08834278  1304","BSTAR":"-0.00084049000000","MEAN_MOTION":"15.08834278","SITE":"AFETR","DECAY_DATE":null,"MEAN_ANOMALY":"324.5198","RCS_SIZE":"LARGE","PERIAPSIS":"538.762","TLE_LINE1":"1 53740U 22107AS  22324.91667824 -.00013637  00000-0 -84049-3 0  9997","CLASSIFICATION_TYPE":"U","GP_ID":"218363938","OBJECT_TYPE":"PAYLOAD","MEAN_ELEMENT_THEORY":"SGP4","SEMIMAJOR_AXIS":"6917.898","OBJECT_NAME":"STARLINK-4607","EPOCH":"2022-11-20T22:00:00.999936","MEAN_MOTION_DDOT":"0.0000000000000","MEAN_MOTION_DOT":"-0.00013637","PERIOD":"95.438","CENTER_NAME":"EARTH","TIME_SYSTEM":"UTC","REV_AT_EPOCH":"130","ECCENTRICITY":"0.00014470","COUNTRY_CODE":"US","FILE":"3665715","OBJECT_ID":"2022-107AS","EPHEMERIS_TYPE":"0","ARG_OF_PERICENTER":"90.0668","RA_OF_ASC_NODE":"272.4329"},{"PERIAPSIS":"465.206","GP_ID":"218363113","TLE_LINE1":"1 53741U 22107AT  22324.91667824 -.00617857  00000-0 -20380-1 0  9998","CLASSIFICATION_TYPE":"U","DECAY_DATE":null,"MEAN_MOTION":"15.33141660","SITE":"AFETR","MEAN_ANOMALY":"38.7099","RCS_SIZE":"LARGE","NORAD_CAT_ID":"53741","LAUNCH_DATE":"2022-09-05","ELEMENT_SET_NO":"999","TLE_LINE2":"2 53741  53.2174 258.9076 0001814  35.7572  38.7099 15.33141660  1304","BSTAR":"-0.02038000000000","INCLINATION":"53.2174","REF_FRAME":"TEME","APOAPSIS":"467.689","EPHEMERIS_TYPE":"0","ARG_OF_PERICENTER":"35.7572","OBJECT_ID":"2022-107AT","RA_OF_ASC_NODE":"258.9076","REV_AT_EPOCH":"130","ECCENTRICITY":"0.00018140","TIME_SYSTEM":"UTC","FILE":"3665715","COUNTRY_CODE":"US","PERIOD":"93.925","OBJECT_NAME":"STARLINK-4614","SEMIMAJOR_AXIS":"6844.583","EPOCH":"2022-11-20T22:00:00.999936","MEAN_MOTION_DDOT":"0.0000000000000","MEAN_MOTION_DOT":"-0.00617857","CENTER_NAME":"EARTH","OBJECT_TYPE":"PAYLOAD","MEAN_ELEMENT_THEORY":"SGP4"},{"RCS_SIZE":"LARGE","MEAN_ANOMALY":"312.8858","DECAY_DATE":null,"SITE":"AFETR","MEAN_MOTION":"15.08841226","GP_ID":"218363607","CLASSIFICATION_TYPE":"U","TLE_LINE1":"1 53742U 22107AU  22324.91667824  .00004618  00000-0  30806-3 0  9998","PERIAPSIS":"538.658","REF_FRAME":"TEME","APOAPSIS":"540.825","INCLINATION":"53.2148","BSTAR":"0.00030806000000","TLE_LINE2":"2 53742  53.2148 272.4732 0001566  81.6717 312.8858 15.08841226  1307","ELEMENT_SET_NO":"999","NORAD_CAT_ID":"53742","LAUNCH_DATE":"2022-09-05","FILE":"3665715","COUNTRY_CODE":"US","ECCENTRICITY":"0.00015660","REV_AT_EPOCH":"130","TIME_SYSTEM":"UTC","RA_OF_ASC_NODE":"272.4732","EPHEMERIS_TYPE":"0","ARG_OF_PERICENTER":"81.6717","OBJECT_ID":"2022-107AU","MEAN_ELEMENT_THEORY":"SGP4","OBJECT_TYPE":"PAYLOAD","CENTER_NAME":"EARTH","PERIOD":"95.437","MEAN_MOTION_DDOT":"0.0000000000000","EPOCH":"2022-11-20T22:00:00.999936","MEAN_MOTION_DOT":"0.00004618","OBJECT_NAME":"STARLINK-4637","SEMIMAJOR_AXIS":"6917.877"}];
